NORAD_CAT_ID,OBJECT_NAME,OBJECT_TYPE,EPOCH,MEAN_MOTION,ECCENTRICITY,INCLINATION,RA_OF_ASC_NODE,ARG_OF_PERICENTER,MEAN_ANOMALY,BSTAR,MEAN_MOTION_DOT,MEAN_MOTION_DDOT,TLE_LINE0,TLE_LINE1,TLE_LINE2,SEMIMAJOR_AXIS,PERIOD,APOGEE,PERIGEE,DECAYED
52842.0,STARLINK-4046,PAYLOAD,2024-04-04 21:01:04,15.08853954,0.0001851,53.2173,313.5876,80.6047,279.5154,0.00099707,0.00015622,0.0,0 STARLINK-4046,1 52842U 22062N   24095.87574361  .00015622  00000-0  99707-3 0  9995,2 52842  53.2173 313.5876 0001851  80.6047 279.5154 15.08853954 99534,6917.838,95.437,540.983,538.422,0.0
52842.0,STARLINK-4046,PAYLOAD,2024-04-05 00:11:50,15.08857316,0.0001841,53.2173,312.9925,81.5703,278.5498,0.00099604,0.00015607,0.0,0 STARLINK-4046,1 52842U 22062N   24096.00822236  .00015607  00000-0  99604-3 0  9997,2 52842  53.2173 312.9925 0001841  81.5703 278.5498 15.08857316100045,6917.827,95.436,540.966,538.419,0.0
52842.0,STARLINK-4046,PAYLOAD,2024-04-05 14:30:18,15.08849948,0.0001886,53.2172,310.3156,83.4727,276.648,0.00035549,5.376e-05,0.0,0 STARLINK-4046,1 52842U 22062N   24096.60438105  .00005376  00000-0  35549-3 0  9991,2 52842  53.2172 310.3156 0001886  83.4727 276.6480 15.08849948 99643,6917.85,95.437,541.02,538.41,0.0
52842.0,STARLINK-4046,PAYLOAD,2024-04-05 20:51:51,15.0884023,0.0001815,53.218,309.1252,86.0704,274.0496,0.00010336,1.357e-05,0.0,0 STARLINK-4046,1 52842U 22062N   24096.86934362  .00001357  00000-0  10336-3 0  9997,2 52842  53.2180 309.1252 0001815  86.0704 274.0496 15.08840230100176,6917.88,95.438,541.0,538.489,0.0
52842.0,STARLINK-4046,PAYLOAD,2024-04-06 14:21:05,15.08842104,0.0001778,53.2179,305.8525,88.1019,272.0176,6.738e-05,7.84e-06,0.0,0 STARLINK-4046,1 52842U 22062N   24097.59798267  .00000784  00000-0  67380-4 0  9995,2 52842  53.2179 305.8525 0001778  88.1019 272.0176 15.08842104 99790,6917.874,95.437,540.969,538.509,0.0
52842.0,STARLINK-4046,PAYLOAD,2024-04-06 20:42:38,15.08845534,0.0001782,53.2182,304.6641,87.7764,272.3432,0.00010187,1.334e-05,0.0,0 STARLINK-4046,1 52842U 22062N   24097.86294067  .00001334  00000-0  10187-3 0  9998,2 52842  53.2182 304.6641 0001782  87.7764 272.3432 15.08845534 99830,6917.863,95.437,540.961,538.496,0.0
52842.0,STARLINK-4046,PAYLOAD,2024-04-07 12:36:29,15.08845092,0.0001983,53.22,301.6945,92.3584,267.7635,0.00013355,1.838e-05,0.0,0 STARLINK-4046,1 52842U 22062N   24098.52534017  .00001838  00000-0  13355-3 0  9993,2 52842  53.2200 301.6945 0001983  92.3584 267.7635 15.08845092100420,6917.865,95.437,541.102,538.358,0.0
52842.0,STARLINK-4046,PAYLOAD,2024-04-07 14:11:52,15.08839071,0.000211,53.2192,301.3962,97.7509,262.3723,0.00017012,2.42e-05,0.0,0 STARLINK-4046,1 52842U 22062N   24098.59158315  .00002420  00000-0  17012-3 0  9995,2 52842  53.2192 301.3962 0002110  97.7509 262.3723 15.08839071 99948,6917.883,95.438,541.208,538.289,0.0
52842.0,STARLINK-4046,PAYLOAD,2024-04-07 20:33:25,15.08835081,0.000177,53.2209,300.2092,92.9601,267.1594,6.7071e-05,7.79e-06,0.0,0 STARLINK-4046,1 52842U 22062N   24098.85654588  .00000779  00000-0  67071-4 0  9993,2 52842  53.2209 300.2092 0001770  92.9601 267.1594 15.08835081100477,6917.895,95.438,540.985,538.536,0.0
52842.0,STARLINK-4046,PAYLOAD,2024-04-08 06:05:44,15.08842715,0.000164,53.2178,298.4221,86.9516,273.1663,0.00011762,1.585e-05,0.0,0 STARLINK-4046,1 52842U 22062N   24099.25398178  .00001585  00000-0  11762-3 0  9999,2 52842  53.2178 298.4221 0001640  86.9516 273.1663 15.08842715100531,6917.872,95.437,540.872,538.603,0.0
52842.0,STARLINK-4046,PAYLOAD,2024-04-08 23:34:58,15.08844979,0.0001738,53.2181,295.1513,91.3417,268.7774,0.00012373,1.682e-05,0.0,0 STARLINK-4046,1 52842U 22062N   24099.98262029  .00001682  00000-0  12373-3 0  9991,2 52842  53.2181 295.1513 0001738  91.3417 268.7774 15.08844979100156,6917.865,95.437,540.932,538.528,0.0
52842.0,STARLINK-4046,PAYLOAD,2024-04-09 05:56:30,15.08854275,0.0001681,53.2178,293.9616,93.6262,266.4923,-0.00020115,-3.489e-05,0.0,0 STARLINK-4046,1 52842U 22062N   24100.24757328 -.00003489  00000-0 -20115-3 0  9996,2 52842  53.2178 293.9616 0001681  93.6262 266.4923 15.08854275100197,6917.837,95.437,540.865,538.539,0.0
52842.0,STARLINK-4046,PAYLOAD,2024-04-09 21:50:22,15.08833398,0.00016,53.2181,290.9879,88.6093,271.5083,1.5721e-06,-2.63e-06,0.0,0 STARLINK-4046,1 52842U 22062N   24100.90998741 -.00000263  00000-0  15721-5 0  9990,2 52842  53.2181 290.9879 0001600  88.6093 271.5083 15.08833398100294,6917.901,95.438,540.872,538.659,0.0
52842.0,STARLINK-4046,PAYLOAD,2024-04-10 05:47:17,15.08850944,0.0002093,53.2172,289.498,83.5668,276.5563,-0.00014392,-2.579e-05,0.0,0 STARLINK-4046,1 52842U 22062N   24101.24118035 -.00002579  00000-0 -14392-3 0  9992,2 52842  53.2172 289.4980 0002093  83.5668 276.5563 15.08850944100833,6917.847,95.437,541.16,538.264,0.0
52842.0,STARLINK-4046,PAYLOAD,2024-04-10 20:05:46,15.08840055,0.0001557,53.2184,286.8233,85.5884,274.5286,7.1947e-05,8.57e-06,0.0,0 STARLINK-4046,1 52842U 22062N   24101.83734608  .00000857  00000-0  71947-4 0  9992,2 52842  53.2184 286.8233 0001557  85.5884 274.5286 15.08840055100926,6917.88,95.438,540.822,538.668,0.0
52842.0,STARLINK-4046,PAYLOAD,2024-04-10 21:41:09,15.08841564,0.0001664,53.2185,286.525,86.5939,273.5243,7.5927e-05,9.21e-06,0.0,0 STARLINK-4046,1 52842U 22062N   24101.90358564  .00000921  00000-0  75927-4 0  9997,2 52842  53.2185 286.5250 0001664  86.5939 273.5243 15.08841564100449,6917.876,95.437,540.892,538.589,0.0
52842.0,STARLINK-4046,PAYLOAD,2024-04-11 18:21:10,15.08842626,0.0001444,53.2183,282.6587,86.7401,273.3757,0.00010121,1.323e-05,0.0,0 STARLINK-4046,1 52842U 22062N   24102.76470575  .00001323  00000-0  10121-3 0  9990,2 52842  53.2183 282.6587 0001444  86.7401 273.3757 15.08842626100571,6917.872,95.437,540.736,538.738,0.0
52842.0,STARLINK-4046,PAYLOAD,2024-04-12 11:50:25,15.08841385,0.0001435,53.218,279.3884,86.3793,273.7363,0.00012972,1.777e-05,0.0,0 STARLINK-4046,1 52842U 22062N   24103.49334711  .00001777  00000-0  12972-3 0  9991,2 52842  53.2180 279.3884 0001435  86.3793 273.7363 15.08841385101176,6917.876,95.437,540.734,538.748,0.0
52842.0,STARLINK-4046,PAYLOAD,2024-04-12 15:01:11,15.08840996,0.0001418,53.2179,278.7932,87.2969,272.8185,0.00011842,1.597e-05,0.0,0 STARLINK-4046,1 52842U 22062N   24103.62582726  .00001597  00000-0  11842-3 0  9992,2 52842  53.2179 278.7932 0001418  87.2969 272.8185 15.08840996100704,6917.877,95.437,540.723,538.761,0.0
52842.0,STARLINK-4046,PAYLOAD,2024-04-13 14:51:58,15.08839816,0.0001188,53.2163,274.3317,87.7582,272.3547,0.00010569,1.395e-05,0.0,0 STARLINK-4046,1 52842U 22062N   24104.61942833  .00001395  00000-0  10569-3 0  9992,2 52842  53.2163 274.3317 0001188  87.7582 272.3547 15.08839816100858,6917.881,95.438,540.568,538.924,0.0
52842.0,STARLINK-4046,PAYLOAD,2024-04-13 18:02:44,15.08839315,0.0001187,53.2169,273.737,97.2834,262.8293,8.7898e-05,1.111e-05,0.0,0 STARLINK-4046,1 52842U 22062N   24104.75190813  .00001111  00000-0  87898-4 0  9996,2 52842  53.2169 273.7370 0001187  97.2834 262.8293 15.08839315101364,6917.882,95.438,540.569,538.926,0.0
52842.0,STARLINK-4046,PAYLOAD,2024-04-14 11:32:01,15.08802644,0.0002601,53.2163,270.4705,6.2106,353.8918,-0.00036346,-6.063e-05,0.0,0 STARLINK-4046,1 52842U 22062N   24105.48057242 -.00006063  00000-0 -36346-3 0  9999,2 52842  53.2163 270.4705 0002601   6.2106 353.8918 15.08802644101470,6917.995,95.44,541.659,538.06,0.0
52842.0,STARLINK-4046,PAYLOAD,2024-04-14 17:53:33,15.08824441,0.0001241,53.2171,269.2783,100.95,259.1632,-5.757e-05,-1.204e-05,0.0,0 STARLINK-4046,1 52842U 22062N   24105.74552336 -.00001204  00000-0 -57570-4 0  9997,2 52842  53.2171 269.2783 0001241 100.9500 259.1632 15.08824441101515,6917.928,95.439,540.651,538.934,0.0
52842.0,STARLINK-4046,PAYLOAD,2024-04-15 11:22:47,15.08837921,0.0001078,53.2164,266.008,106.8386,253.2725,0.00014886,2.082e-05,0.0,0 STARLINK-4046,1 52842U 22062N   24106.47415976  .00002082  00000-0  14886-3 0  9991,2 52842  53.2164 266.0080 0001078 106.8386 253.2725 15.08837921101624,6917.887,95.438,540.497,539.006,0.0
52842.0,STARLINK-4046,PAYLOAD,2024-04-15 14:33:33,15.08843218,0.0001242,53.2173,265.4142,84.1489,275.9645,0.00023997,3.534e-05,0.0,0 STARLINK-4046,1 52842U 22062N   24106.60663867  .00003534  00000-0  23997-3 0  9996,2 52842  53.2173 265.4142 0001242  84.1489 275.9645 15.08843218101157,6917.871,95.437,540.595,538.876,0.0
52842.0,STARLINK-4046,PAYLOAD,2024-04-15 17:44:19,15.08852102,0.0001211,53.2175,264.8231,95.7893,264.3237,0.00035867,5.427e-05,0.0,0 STARLINK-4046,1 52842U 22062N   24106.73911466  .00005427  00000-0  35867-3 0  9993,2 52842  53.2175 264.8231 0001211  95.7893 264.3237 15.08852102101661,6917.843,95.437,540.546,538.871,0.0
52842.0,STARLINK-4046,PAYLOAD,2024-04-16 09:38:11,15.08842832,0.0001803,53.2169,261.8454,76.4862,283.6331,0.00041797,6.371e-05,0.0,0 STARLINK-4046,1 52842U 22062N   24107.40151709  .00006371  00000-0  41797-3 0  9992,2 52842  53.2169 261.8454 0001803  76.4862 283.6331 15.08842832101766,6917.872,95.437,540.984,538.489,0.0
52842.0,STARLINK-4046,PAYLOAD,2024-04-16 14:24:20,15.08845957,0.0002458,53.2164,260.9513,78.262,281.8648,0.000363,5.495e-05,0.0,0 STARLINK-4046,1 52842U 22062N   24107.60023609  .00005495  00000-0  36300-3 0  9991,2 52842  53.2164 260.9513 0002458  78.2620 281.8648 15.08845957101308,6917.862,95.437,541.428,538.027,0.0
52842.0,STARLINK-4046,PAYLOAD,2024-04-16 15:59:43,15.08844865,0.0001652,53.2172,260.6562,79.5712,280.5466,0.00030053,4.499e-05,0.0,0 STARLINK-4046,1 52842U 22062N   24107.66647471  .00004499  00000-0  30053-3 0  9998,2 52842  53.2172 260.6562 0001652  79.5712 280.5466 15.08844865101311,6917.866,95.437,540.873,538.588,0.0
52842.0,STARLINK-4046,PAYLOAD,2024-04-17 14:15:07,15.08841856,0.0002085,53.2161,256.4923,56.1725,303.9465,-3.1276e-05,-7.86e-06,0.0,0 STARLINK-4046,1 52842U 22062N   24108.59383471 -.00000786  00000-0 -31276-4 0  9994,2 52842  53.2161 256.4923 0002085  56.1725 303.9465 15.08841856101450,6917.875,95.437,541.182,538.297,0.0
